STARLINK-32625          
1 62154U 24224R   26068.27842535  .00036351  00000+0  13231-2 0  9999
2 62154  42.9968 160.7214 0001114 290.1455  69.9277 15.27602483 72302
BANDWAGON-4 OBJECT M    
1 66304U 25248M   26068.03503276  .00023645  00000+0  95704-3 0  9995
2 66304  45.4108 294.9904 0012944 207.5285 152.4918 15.24295413 18037
